MAKERSAT 0              
1 43016U 17073D   26068.63673096  .00023659  00000+0  71590-3 0  9993
2 43016  97.4777 310.6155 0115258 266.0743  92.7313 15.27797199451246
STARLINK-30821          
1 58181U 23167G   26067.48837774  .00003376  00000+0  13541-3 0  9996
2 58181  42.9974 149.9789 0001105 242.9585 117.1154 15.26757242130790
